NORAD_CAT_ID,OBJECT_NAME,OBJECT_TYPE,EPOCH,MEAN_MOTION,ECCENTRICITY,INCLINATION,RA_OF_ASC_NODE,ARG_OF_PERICENTER,MEAN_ANOMALY,BSTAR,MEAN_MOTION_DOT,MEAN_MOTION_DDOT,TLE_LINE0,TLE_LINE1,TLE_LINE2,SEMIMAJOR_AXIS,PERIOD,APOGEE,PERIGEE,DECAYED
50831.0,STARLINK-3299,PAYLOAD,2024-08-15 06:36:34,15.08838754,0.0001307,53.2144,214.3656,85.0554,275.0587,9.2119e-05,1.178e-05,0.0,0 STARLINK-3299,1 50831U 22001AE  24228.27539739  .00001178  00000-0  92119-4 0  9998,2 50831  53.2144 214.3656 0001307  85.0554 275.0587 15.08838754144140,6917.884,95.438,540.653,538.845,0.0
50831.0,STARLINK-3299,PAYLOAD,2024-08-15 16:08:52,15.08844484,0.0001297,53.2147,212.5814,87.9457,272.1684,0.00015532,2.185e-05,0.0,0 STARLINK-3299,1 50831U 22001AE  24228.67283517  .00002185  00000-0  15532-3 0  9994,2 50831  53.2147 212.5814 0001297  87.9457 272.1684 15.08844484145470,6917.867,95.437,540.629,538.834,0.0
50831.0,STARLINK-3299,PAYLOAD,2024-08-16 04:51:58,15.08837501,0.0001358,53.2141,210.2021,85.6124,274.5024,0.00019086,2.751e-05,0.0,0 STARLINK-3299,1 50831U 22001AE  24229.20276195  .00002751  00000-0  19086-3 0  9995,2 50831  53.2141 210.2021 0001358  85.6124 274.5024 15.08837501145558,6917.888,95.438,540.692,538.814,0.0
50831.0,STARLINK-3299,PAYLOAD,2024-08-16 06:27:21,15.08839676,0.0001393,53.2144,209.905,85.7552,274.3599,0.0002267,3.322e-05,0.0,0 STARLINK-3299,1 50831U 22001AE  24229.26900149  .00003322  00000-0  22670-3 0  9992,2 50831  53.2144 209.9050 0001393  85.7552 274.3599 15.08839676144293,6917.881,95.438,540.71,538.783,0.0
50831.0,STARLINK-3299,PAYLOAD,2024-08-17 07:53:31,15.08843678,0.0001485,53.2155,205.1457,85.3123,274.8039,0.00010893,1.446e-05,0.0,0 STARLINK-3299,1 50831U 22001AE  24230.32884041  .00001446  00000-0  10893-3 0  9992,2 50831  53.2155 205.1457 0001485  85.3123 274.8039 15.08843678145726,6917.869,95.437,540.761,538.707,0.0
50831.0,STARLINK-3299,PAYLOAD,2024-08-18 02:58:09,15.08843658,0.0001466,53.2156,201.577,87.7672,272.3488,0.00015594,2.195e-05,0.0,0 STARLINK-3299,1 50831U 22001AE  24231.12372044  .00002195  00000-0  15594-3 0  9991,2 50831  53.2156 201.5770 0001466  87.7672 272.3488 15.08843658144570,6917.869,95.437,540.748,538.72,0.0
50831.0,STARLINK-3299,PAYLOAD,2024-08-18 22:02:47,15.08842125,0.0001584,53.2163,198.0097,84.235,275.8823,0.00011543,1.55e-05,0.0,0 STARLINK-3299,1 50831U 22001AE  24231.91860091  .00001550  00000-0  11543-3 0  9996,2 50831  53.2163 198.0097 0001584  84.2350 275.8823 15.08842125144698,6917.874,95.437,540.835,538.643,0.0
50831.0,STARLINK-3299,PAYLOAD,2024-08-19 04:24:19,15.08837673,0.0001478,53.2159,196.8187,84.0248,276.0913,3.5077e-05,2.7e-06,0.0,0 STARLINK-3299,1 50831U 22001AE  24232.18356265  .00000270  00000-0  35077-4 0  9996,2 50831  53.2159 196.8187 0001478  84.0248 276.0913 15.08837673146007,6917.888,95.438,540.775,538.73,0.0
50831.0,STARLINK-3299,PAYLOAD,2024-08-19 07:35:06,15.08837115,0.0001473,53.2169,196.2249,85.0984,275.0177,2.8752e-05,1.7e-06,0.0,0 STARLINK-3299,1 50831U 22001AE  24232.31604392  .00000170  00000-0  28752-4 0  9999,2 50831  53.2169 196.2249 0001473  85.0984 275.0177 15.08837115144756,6917.889,95.438,540.773,538.735,0.0
50831.0,STARLINK-3299,PAYLOAD,2024-08-20 07:25:53,15.08844553,0.0001458,53.2167,191.7645,84.0594,276.0565,-6.0016e-05,-1.243e-05,0.0,0 STARLINK-3299,1 50831U 22001AE  24233.30964278 -.00001243  00000-0 -60016-4 0  9994,2 50831  53.2167 191.7645 0001458  84.0594 276.0565 15.08844553146177,6917.866,95.437,540.74,538.723,0.0
50831.0,STARLINK-3299,PAYLOAD,2024-08-21 07:16:39,15.0884588,0.0001396,53.2168,187.3044,84.3312,275.784,0.00016243,2.298e-05,0.0,0 STARLINK-3299,1 50831U 22001AE  24234.30323614  .00002298  00000-0  16243-3 0  9999,2 50831  53.2168 187.3044 0001396  84.3312 275.7840 15.08845880145056,6917.862,95.437,540.693,538.762,0.0
